PARK_ID,RINK_ID,NAME,ADDRESS,WARD,ALTERNATE_NAME,MAJOR_CROSSSTREETS,FACILITY,PUBLIC_CHANGE_SPACE,BOARDS_Y_N,BOARDS_TYPE,TOILET,LIGHTS_TYPE,RINK_TYPE,SUPERVISION,ICE_MAINTENANCE,PARK_ADDRESS_FR,INSTALLATION_FR,SPACE_CHANGEMENT_PUBLIQUE_FR,PANNEAUX_Y_N_FR,PANNEAUX_FR,TOILETTE_FR,LUMI?RES_FR,PATINOIRE_TYPE_FR,SUPERVISION_FR,NAME_FR,OPEN_2012,Latitude,Longitude
701,164,ROY PARK,6210 MEADOWGLEN DR Gloucester,2,,Meadowglen/Orleans,NONE,,YES,TEMP,no,NONE,RINK with Puddle,NO,City,"6210, prom MEADOWGLEN",None,,Oui,Temp,Non,Non,patinoire avec flaque,Non,PARC ROY,Y,45.44922028280,-75.53095911960
321,139,DELORME PARK,6591 DELORME AVE Gloucester,2,,Des epinettes/Delmore,NONE,,NO,NONE,no,NONE,Puddle,NO,City,"6591, av DELORME",None,,Non,Non,Non,Non,flaque,Non,PARC DELORME,Y,45.45714658460,-75.51079551070
1005,168,ST. FRANCOIS PARK,1855 SIMARD DR Gloucester,2,,Orleans/Boyer,NONE,,YES,TEMP,no,NONE,RINK with Puddle,NO,City,"1855, prom SIMARD",None,,Oui,Temp,Non,Non,patinoire avec flaque,Non,PARC ST-FRANCOIS,Y,45.45160594900,-75.51909769250
67,132,BARRINGTON PARK,1705 ORLEANS BLVD Gloucester,2,,Barrington /Beasejour,TRAILER,YES,YES,PERM,NO,PERM,RINK with Puddle,YES,Community,"1705, boul ORLEANS",Trailer,Oui,Oui,Perm,Non,Oui,patinoire avec flaque,Oui,PARC BARRINGTON,Y,45.45746666890,-75.52233333360
1053,158,PIERRE ROCQUE PARK,1257 JOSEPH DROUIN AVE Gloucester,1,,St. Joseph/Saint Pierre,COMMUNITY CENTER,,YES,TEMP,YES,PERM,Rink with Puddle,NO,City,"1257, av JOSEPH DROUIN",Centre communautaire,,Oui,Temp,Oui,Oui,patinoire avec flaque,Non,PARC PIERRE-ROCQUE,Y,45.47584768060,-75.52487930910
460,145,GLEN PARK,1766 GREY NUNS DR Gloucester,1,,St. Joseph/Grey Nuns,NONE,,NO,NONE,no,PERM,Puddle,NO,City,"1766, prom GREY NUNS",None,,Non,Non,Non,Oui,flaque,Non,PARC GLEN,Y,45.46908140250,-75.53639056070
386,141,FALLINGBROOK PARK,681 DEANCOURT CRES Cumberland,1,,Princess Lousie/Deancourt,SCHOOL,,YES,PERM,YES,PERM,RINK with Puddle,YES,Community,"681, crois DEANCOURT",?cole,,Oui,Perm,Oui,Oui,patinoire avec flaque,Oui,PARC FALLINGBROOK,Y,45.48120188190,-75.48792916830
501,151,LOUIS PERRAULT PARK,6250 BEAUSEJOUR DR Gloucester,2,,Beausejour/Hunter's Run,NONE,,NO,NONE,no,NONE,Double Surface (End Boards),NO,City,"6250, prom BEAUSEJOUR",None,,Non,Non,Non,Non,surface double (conseils de fin),Non,PARC LOUIS-PERRAULT,Y,45.45806439660,-75.53146069600
1195,48,BAYSHORE PARK,175 WOODRIDGE CRES Nepean,7,,Carling/Acres,COMMUNITY BUILDING,YES,YES,PERM,YES,PERM,RINK with Puddle,YES,Community,"175, crois WOODRIDGE",Installation communautaire,Oui,Oui,Perm,Oui,Oui,patinoire avec flaque,Oui,PARC BAYSHORE,Y,45.35092994280,-75.80981774610
498,64,LAKEVIEW PARK,62 HORNER DR Nepean,7,,Carling/Corkstown,TRAILER - NEPEAN,YES,YES,TEMP,NO,PERM,RINK with Puddle,YES,Community,"62, prom HORNER",Trailer,Oui,Oui,Temp,Non,Oui,patinoire avec flaque,Oui,PARC LAKEVIEW,Y,45.34605303820,-75.82401701390
918,199,PINEVIEW PARK,1465 RIDGEBROOK DR Gloucester,11,,Maxime/Ridgebrook,(NONE) NO TRAILER,NO,YES,PERM,NO,PERM,Rink,NO,City,"1465, prom RIDGEBROOK",Aucon,Non,Oui,Perm,Non,Oui,patinoire,Non,PARC PINEVIEW,Y,45.42319616450,-75.60470240980
1680,137,CASSIA CIRCLE PARK,1876 CASSIA CIRCLE Cumberland,1,"Cardinal Creek, Springridge",Trim/Springridge,NONE,,YES,TEMP,NO,NONE,Puddle (End Boards),NO,Community,"1876, cercle CASSIA",None,,Oui,Temp,Non,Non,flaque (conseils de fin),Non,PARC CASSIA CIRCLE,Y,45.48110284040,-75.46536390100
1174,71,MOLOUGHNEY PARK,30 WESSEX RD Nepean,3,Charlie Conacher,Greenbank/Strandherd,COMMUNITY BUILDING,YES,YES,TEMP,YES,PERM,Rink,YES,Community,"30, ch WESSEX",Installation communautaire,Oui,Oui,Temp,Oui,Oui,patinoire,Oui,PARC MOLOUGHNEY,Y,45.27330338380,-75.75185487690
670,194,MARQUIS PARK,1913 MARQUIS AVE Gloucester,11,Beacon Hill,Ogilive/Montreal,NONE,NO,NO,NONE,NO,PERM,Puddle,NO,City,"1913, av MARQUIS",None,Non,Non,Non,Non,Oui,flaque,Non,PARC MARQUIS,Y,45.44572450830,-75.60046047800
587,190,LA VERENDRYE PARK,625 LAVERENDRYE DR Gloucester,11,,Ogilvie/La Verendrye,NONE,NO,NO,NONE,NO,PERM,Puddle,NO,City,"625, prom LAVERENDRYE",None,Non,Non,Non,Non,Oui,flaque,Non,PARC LA V?RENDRYE,Y,45.45527656850,-75.60540315070
357,186,EASTVALE PARK,740 EASTVALE DR Gloucester,11,,Ogilive/Rockcliffe,FIELDHOUSE,YES,YES,PERM,NO,PERM,RINK with Puddle,YES,City,"740, prom EASTVALE",Pavillon,Oui,Oui,Perm,Non,Oui,patinoire avec flaque,Oui,PARC EASTVALE,Y,45.45908331330,-75.59804999110
271,181,COMBERMERE PARK,11 COMBERMERE LANE Gloucester,11,,Blair/Rockcliffe,SHACK,YES,YES,TEMP,NO,PERM,RINK with Puddle,YES,City,"11, lane COMBERMERE",Cabane,Oui,Oui,Temp,Non,Oui,patinoire avec flaque,Oui,PARC COMBERMERE,Y,45.45931666900,-75.61420000000
2,66,LESLIE PARK,31 ABINGDON DR Nepean,8,,Greenbank/Baseline,SHACK,YES,YES,TEMP,NO,PERM,Rink,YES,Community,"31, prom ABINGDON",Cabane,Oui,Oui,Temp,Non,Oui,patinoire,Oui,PARC LESLIE,Y,45.33437173910,-75.78811078420
42,46,ARNOLD PARK,46 ARNOLD DR Nepean,8,,Moodie/Arnold,NONE,NO,NO,NONE,NO,NONE,Puddle,NO,City,"46, prom ARNOLD",None,Non,Non,Non,Non,Non,flaque,Non,PARC ARNOLD,Y,45.31269983170,-75.82476701730
1080,67,LYNWOOD PARK,7 SYCAMORE DR Nepean,8,,Moodie/Robertson,COMMUNITY BUILDING,YES,YES,TEMP,YES,PERM,RINK with Puddle,YES,Community,"7, prom SYCAMORE",Installation communautaire,Oui,Oui,Temp,Oui,Oui,patinoire avec flaque,Oui,PARC LYNWOOD,Y,45.31944864250,-75.82120258990
36,45,ARBEATHA PARK,105 ARBEATHA ST Nepean,8,,Moodie/Richmond,NONE,NO,NO,NONE,NO,NONE,Puddle,NO,City,"105, rue ARBEATHA",None,Non,Non,Non,Non,Non,flaque,Non,PARC ARBEATHA,Y,45.31604942760,-75.82326205830
1056,195,NEW EDINBURGH PARK,193 STANLEY AVE Old Ottawa,13,,Crichton/Mackay,COMMUNITY BUILDING,YES,NO,NONE,YES,PERM,Double Surface,YES,Community,"193, av STANLEY",Installation communautaire,Oui,Non,Non,Oui,Oui,surface double,Oui,PARC NEW EDINBURGH,Y,45.43860951250,-75.68548925880
1163,113,MCKELLAR PARK,539 WAVELL AVE Old Ottawa,15,,Wavell/Crossfield,FIELDHOUSE,,NO,NONE,YES,TEMP,Double Surface,YES,Community,"539, av WAVELL",Pavillon,,Non,Non,Oui,Oui,surface double,Oui,PARC MCKELLAR,Y,45.38347969770,-75.76526133090
468,210,ARNOTT PARK,691 HARTMAN CRES Old Ottawa,16,,Fielding/Hartman,TRAILER,YES,NO,NONE,NO,PERM,Double Surface,YES,Community,"691, crois HARTMAN",Trailer,Oui,Non,Non,Non,Oui,surface double,Oui,PARC ARNOTT,Y,45.36183273210,-75.68067250440
1050,148,JEANNE D'ARC PARK,1155 ST. MORITZ CRT Gloucester,1,,Jeanne D'arc/Voyageur,NONE,,YES,PERM,no,PERM,Rink with Puddle,NO,Community,"1155, cour ST. MORITZ",None,,Oui,Perm,Non,Oui,patinoire avec flaque,Non,PARC JEANNE-D'ARC,Y,45.47401666910,-75.54578333270
1076,134,MARCEL BERIAULT PARK,1691 SUNVIEW DR Gloucester,2,,Des Epinettes/Jeanne D'arc,NONE,,NO,NONE,no,NONE,Puddle,NO,City,"1691, prom SUNVIEW",None,,Non,Non,Non,Non,flaque,Non,PARC MARCEL-BERIAULT,Y,45.46361836950,-75.51398297690
1323,150,LONGLEAF PARK,5831 GLADEWOODS PL Gloucester,2,,Orleans/Longleaf,NONE,,YES,TEMP,NO,NONE,Rink,NO,City,"5831, place GLADEWOODS",None,,Oui,Temp,Non,Non,patinoire,Non,PARC LONGLEAF,Y,45.44043774010,-75.53332486160
1004,167,SILVERBIRCH PARK,6105 SILVERBIRCH ST Gloucester,2,,Orleans/Silverbirch,NONE,,YES,PERM (?),NO,NONE,Rink,NO,City,"6105, rue SILVERBIRCH",None,,Oui,Perm,Non,Non,patinoire,Non,PARC SILVERBIRCH,Y,45.44336839350,-75.52869031940
474,221,HEATHERINGTON PARK,1560 HEATHERINGTON RD Old Ottawa,10,,Albion Rd.N/Heatherington,TRAILER,YES,NO,NONE,NO,TEMP,Double Surface,YES,Community,"1560, ch HEATHERINGTON",Trailer,Oui,Non,Non,Non,Oui,surface double,Oui,PARC HEATHERINGTON,Y,45.37339079890,-75.64830060350
806,227,MCCARTHY PARK,3320 PAUL ANKA DR Old Ottawa,16,,McCarthy/Paul Anka,TRAILER,YES,YES,TEMP,NO,PERM,RINK with Puddle,YES,Community,"3320, prom PAUL ANKA",Trailer,Oui,Oui,Temp,Non,Oui,patinoire avec flaque,Oui,PARC MCCARTHY,Y,45.35126321200,-75.67292708220
522,109,JACK PURCELL PARK,320 JACK PURCELL LANE Old Ottawa,14,,Elgin/Frank,TRAILER,,YES,TEMP,YES,TEMP,RINK with Puddle,YES,Community,"320, lane JACK PURCELL",Trailer,,Oui,Temp,Oui,Oui,patinoire avec flaque,Oui,PARC JACK-PURCELL,Y,45.41511409620,-75.68916430520
307,238,SAWMILL CREEK POOL PARK,3380 D'AOUST AVE Gloucester,10,,D'Aoust/Timbermill,NONE,NO,YES,TEMP,NO,PERM,RINK with Puddle,NO,Community,"3380, av D'AOUST",None,Non,Oui,Temp,Non,Oui,patinoire avec flaque,Non,PARC SAWMILL CREEK POOL,Y,45.34989624050,-75.63564459380
903,21,MARCH CENTRAL COMMUNITY CENTER,1030 RIDDELL DR Kanata,5,,Riddell/Dunrobin,NONE,NO,YES,PERM,NO,PERM,Rink,NO,Community,"1030, prom RIDDELL",None,Non,Oui,Perm,Non,Oui,patinoire,Non,CENTRE COMMUNAUTAIRE MARCH CENTRAL,Y,45.37641666910,-75.95538333380
273,84,NORTH GOWER RA / ALFRED TAYLOR RECREATION FACILITY,2300 COMMUNITY WAY Rideau,21,North Gower,4th Line/Roger Stevens,COMMUNITY CENTER,,YES,TEMP,YES,YES,Rink,NO,Community,"2300, voie COMMUNITY",Centre communautaire,,Oui,Temp,Oui,Oui,patinoire,Non,CENTRE RA DE NORTH GOWER / INSTALLATION R?CR?ATIVE ALFRED-TAYLOR,Y,45.13061293410,-75.71117337500
889,91,CARSONBY (HARRY CRAIG CENTRE),6047 PRINCE OF WALES DR Rideau,21,Harry Craig ?,Carsonby/Prince of whales,SHACK,,YES,PERM,NO,YES,RINK with Puddle,NO,Community,"6047, prom PRINCE OF WALES",Cabane,,Oui,Perm,Non,Oui,patinoire avec flaque,Non,CENTRE HARRY-CRAIG,Y,45.17456083080,-75.71556863610
407,85,ASHTON COMMUNITY PARK (CAVANAGH COMMUNITY CENTRE PARK),8930 FLEWELLYN RD Goulbourn,21,Cavanagh Community Center,aston Station Rd/Flewellyn,FIELDHOUSE,,YES,TEMP,YES,YES,Rink,NO,Community,"8930, ch FLEWELLYN",Pavillon,,Oui,Temp,Oui,Oui,patinoire,Non,PARC FORESTVIEW,Y,45.15806666930,-76.02934999970
1102,9,DUNROBIN COMMUNITY CENTRE,1145 THOMAS A. DOLAN PKWY West Carleton,5,,Thomas Dolan/Dunrobin,COMMUNITY CENTER,YES,YES,PERM,YES,PERM,Rink,YES,Community,"1145, pkwy THOMAS A. DOLAN",Centre communautaire,Oui,Oui,Perm,Oui,Oui,patinoire,Oui,CENTRE COMMUNAUTAIRE DUNROBIN,Y,45.42169271920,-76.02566927440
541,13,HUNTLEY COMMUNITY CENTRE,108 JUANITA AVE West Carleton,5,Carp,Varley/Beaverbrook,FIELDHOUSE,YES,YES,PERM,YES,PERM,Rink,NO,Community,"108, av JUANITA",Pavillon,Oui,Oui,Perm,Oui,Oui,patinoire,Non,CENTRE COMMUNAUTAIRE HUNTLEY,Y,45.34973625470,-76.03931691840
558,18,KINBURN COMMUNITY CENTRE,3045 KINBURN SIDE RD West Carleton,5,,Kinburn/Loggers,FIELDHOUSE,YES,YES,PERM,YES,PERM,Rink,YES,Community,"3045, ch KINBURN SIDE",Pavillon,Oui,Oui,Perm,Oui,Oui,patinoire,Oui,CENTRE COMMUNAUTAIRE KINBURN,Y,45.39361368970,-76.18680795180
310,12,GALETTA COMMUNITY CENTRE,119 DARWIN ST West Carleton,5,,Marchady/Galetta,COMMUNITY BUILDING,YES,YES,PERM,YES,PERM,Rink,YES,Community,"119, rue DARWIN",Installation communautaire,Oui,Oui,Perm,Oui,Oui,patinoire,Oui,CENTRE COMMUNAUTAIRE DE GALETTA,Y,45.42517003500,-76.26048990620
970,172,YVES CHENIER PARK,3585 SARSFIELD RD Cumberland,19,,Colonial/Sarsfield,COMMUNITY CENTER,,YES,PERM,YES,PERM,Rink,YES,Community,"3585, ch SARSFIELD",Centre communautaire,,Oui,Perm,Oui,Oui,patinoire,Oui,PARC YVES-CHENIER,Y,45.44050133490,-75.34257963660
519,108,IONA PARK,223 IONA ST Old Ottawa,15,,Byron/Hilson,SHACK,,NO,NONE,YES,TEMP,Double Surface,YES,Community,"223, rue IONA",Cabane,,Non,Non,Oui,Oui,surface double,Oui,PARC IONA,Y,45.39208204290,-75.74220844850
653,121,OSGOODE COMMUNITY CENTRE,5660 OSGOODE MAIN ST Osgoode,20,,Main/Vance,COMMUNITY BUILDING,YES,YES,TEMP,YES,PERM,Rink,NO,Community,"5660, rue OSGOODE MAIN",Installation communautaire,Oui,Oui,Temp,Oui,Oui,patinoire,Non,CENTRE COMMUNAUTAIRE OSGOODE,Y,45.14683861290,-75.60137068040
630,231,PIKE PARK,131 LORRY GREENBERG DR Old Ottawa,10,,Finland/Lorry Greenberg,TRAILER,YES,YES,TEMP,NO,TEMP,RINK with Puddle,YES,Community,"131, prom LORRY GREENBERG",Trailer,Oui,Oui,Temp,Non,Oui,patinoire avec flaque,Oui,PARC PIKE,Y,45.36690000220,-75.62671666680
1010,204,SANDY HILL PARK AND COMMUNITY CENTRE,250 SOMERSET ST Old Ottawa,12,,Somerset/Sweetland,FIELDHOUSE,YES,YES,TEMP,YES,TEMP,RINK with Puddle,YES,Community,"250, rue SOMERSET",Pavillon,Oui,Oui,Temp,Oui,Oui,patinoire avec flaque,Oui,PARC ET CENTRE COMMUNAUTAIRE C»TE-DE-SABLE,Y,45.42207355100,-75.67714289180
34,187,FAIRFIELD PARK,49 APPLEFORD ST Gloucester,11,,Ogilive/Elmridge,FIELDHOUSE,YES,YES,TEMP,NO,PERM,RINK with Puddle,YES,Community,"49, rue APPLEFORD",Pavillon,Oui,Oui,Temp,Non,Oui,patinoire avec flaque,Oui,PARC FAIRFIELD,Y,45.44146971060,-75.60633737600
126,5,BLUEGRASS PARK,59 BLUEGRASS DR Kanata,23,,Equestrian/Eagleson,SCHOOL,NO,YES,PERM,NO,PERM,Rink,NO,Community,"59, prom BLUEGRASS",?cole,Non,Oui,Perm,Non,Oui,patinoire,Non,PARC BLUEGRASS,Y,45.28581040040,-75.85977872630
525,188,JASMINE PARK,2040 JASMINE CRES Gloucester,11,,Ogilvie/Jasmine,FIELDHOUSE,YES,YES,TEMP,NO,PERM,Double Surface (End Boards),YES,City,"2040, crois JASMINE",Pavillon,Oui,Oui,Temp,Non,Oui,surface double (conseils de fin),Oui,PARC JASMINE,Y,45.44092349480,-75.59327220370
356,173,ACRES PARK,2193 EAST ACRES RD Gloucester,11,,Montreal/Ogilvie,NONE,NO,NO,NONE,NO,PERM,Puddle,NO,City,"2193, ch EAST ACRES",None,Non,Non,Non,Non,Oui,flaque,Non,PARC ACRES,Y,45.44732014990,-75.58850340750
518,62,INVERNESS PARK,76 INVERNESS AVE Nepean,9,,Meadowlands Dr. East/ Inverness,COMMUNITY BUILDING,YES,YES,TEMP,YES,PERM,RINK with Puddle,YES,Community,"76, av INVERNESS",Installation communautaire,Oui,Oui,Temp,Oui,Oui,patinoire avec flaque,Oui,PARC INVERNESS,Y,45.35865567780,-75.72202649980
206,28,CLARENCE MAHERAL PARK,183 OLD COLONY RD Kanata / 170 CASTLEFRANK RD Kanata,23,,Terry Fox/Castlefrank,FIELDHOUSE,YES,YES,PERM,YES,PERM,RINK with Puddle,NO,Community,"170, ch CASTLEFRANK",Pavillon,Oui,Oui,Perm,Oui,Oui,patinoire avec flaque,Non,PARC CLARENCE MAHERAL,Y,45.28959018970,-75.87855768470
507,14,HUNTSMAN PARK,38 HUNTSMAN CRES Kanata,23,,Carp/Juanita,NONE,NO,YES,TEMP,NO,PERM,Rink,NO,Community,"38, crois HUNTSMAN",None,Non,Oui,Temp,Non,Oui,patinoire,Non,PARC HUNTSMAN,Y,45.27993333600,-75.86108333370
1302,22,MATTAWA PARK,94 STEEPLE CHASE DR Kanata,23,,Steeplechase/Bridlewood,NONE,NO,YES,TEMP,NO,BOTH,Rink,NO,Community,"94, prom STEEPLE CHASE",None,Non,Oui,Temp,Non,Oui,patinoire,Non,PARC MATTAWA,Y,45.30036560940,-75.85569459670
999,35,SHETLAND PARK,24 SHETLAND WAY Kanata,23,,Eagleson/Palimino,NONE,NO,NO,NONE,NO,NONE,Puddle,NO,Community,"24, voie SHETLAND",None,Non,Non,Non,Non,Non,flaque,Non,PARC SHETLAND,Y,45.29814219760,-75.86521970850
687,44,YOUNG'S POND PARK,177 MCCURDY DR Kanata,23,,Terry Fox/Hazaldean,NONE,NO,NO,NONE,NO,NONE,Puddle,NO,Community,"177, prom MCCURDY",None,Non,Non,Non,Non,Non,flaque,Non,PARC YOUNG'S POND,Y,45.29914105230,-75.89803001300
49,60,GRENFELL GLEN PARK,53 AVONLEA RD Nepean,9,,Woodroffe/Glenfell,TRAILER - NEPEAN,YES,YES,TEMP,NO,PERM,RINK with Puddle,YES,Community,"53, ch AVONLEA",Trailer,Oui,Oui,Temp,Non,Oui,patinoire avec flaque,Oui,PARC GRENFELL GLEN,Y,45.31576666920,-75.73106666630
739,72,NANAIMO  PARK,48 NANAIMO DR Nepean,8,,Richmond/Nanaimo,FIELDHOUSE,YES,YES,TEMP,NO,PERM,RINK with Puddle,NO,Community,"48, prom NANAIMO",Pavillon,Oui,Oui,Temp,Non,Oui,patinoire avec flaque,Non,PARC NANAIMO,Y,45.34273374660,-75.79912722390
1097,30,ROLAND MICHENER PARK,989 TERON RD Kanata,4,,Beaverbrook/Teron,NONE,NO,NO,NONE,NO,NONE,Puddle,NO,Community,"989, ch TERON",None,Non,Non,Non,Non,Non,flaque,Non,PARC ROLAND-MICHENER,Y,45.32778312540,-75.89384121470
27,56,COUNTRY PLACE PARK,83 AMBERWOOD CRES Nepean,9,,Fallowfield/Merivale,FIELDHOUSE,YES,YES,TEMP,NO,PERM,RINK with Puddle,YES,Community,"83, crois AMBERWOOD",Pavillon,Oui,Oui,Temp,Non,Oui,patinoire avec flaque,Oui,PARC COUNTRY PLACE,Y,45.32105811250,-75.70780941700
597,68,MAKI PARK,19 LEEMING DR Nepean,7,,Carling/Bedale,COMMUNITY BUILDING,YES,YES,TEMP,YES,PERM,RINK with Puddle,YES,Community,"19, prom LEEMING",Installation communautaire,Oui,Oui,Temp,Oui,Oui,patinoire avec flaque,Oui,PARC MAKI,Y,45.34995057250,-75.83276311220
916,78,STONECREST PARK,220 STONEWAY DR Nepean,22,,Woodroffe/Stoneway,COMMUNITY BUILDING,YES,YES,TEMP,YES,PERM,RINK with Puddle,YES,Community,"220, prom STONEWAY",Installation communautaire,Oui,Oui,Temp,Oui,Oui,patinoire avec flaque,Oui,PARC STONECREST,Y,45.28786666910,-75.71679999940
729,8,DOG BONE PARK,5 MORTON DR Kanata,23,,Terryfox/Hazaeldean,NONE,NO,NO,NONE,NO,PERM,Double Surface,NO,Community,"5, prom MORTON",None,Non,Non,Non,Non,Oui,surface double,Non,PARC DOG BONE,Y,45.28900640510,-75.88428619180
1113,117,MEADOWVALE TERRACE PARK,1205 TRENTON AVE Old Ottawa,16,,Fisher/,FIELDHOUSE,,NO,NONE,YES,TEMP,Double Surface,YES,Community,"1205, av TRENTON",Pavillon,,Non,Non,Oui,Oui,surface double,Oui,PARC MEADOWVALE TERRACE,Y,45.37833359750,-75.72405176160
843,149,KINSELLA PARK,1600 PRESTWICK DR Cumberland,1,,Des Epinettes/Saint George,FIELDHOUSE,,YES,PERM,YES,PERM,RINK with Puddle,YES,Community,"1600, prom PRESTWICK",Pavillon,,Oui,Perm,Oui,Oui,patinoire avec flaque,Oui,PARC KINSELLA,Y,45.46753338360,-75.49931589930
1003,83,ALEXANDER PARK,960 SILVER ST Old Ottawa,16,,Merivale/Kirkwood,COMMUNITY CENTER,,YES,TEMP,YES,TEMP,RINK with Puddle,YES,Community,"960, rue SILVER",Centre communautaire,,Oui,Temp,Oui,Oui,patinoire avec flaque,Oui,PARC ALEXANDER,Y,45.37977646850,-75.73179930350
1676,166,SCALA PARK,797 SCALA AVE Orleans,19,,Innes/Portabello,FIELDHOUSE,,YES,PERM,YES,PERM,RINK with Puddle,YES,Community,"797, av SCALA",Pavillon,,Oui,Perm,Oui,Oui,patinoire avec flaque,Oui,PARC SCALA,Y,45.46270000230,-75.46845000020
1511,169,VALIN (SOUTH FALLINGBROOK COMMUNITY CENTRE & PARK),998 VALIN DR Cumberland,19,Maple Ridge,Innes/Provence,COMMUNITY CENTER,,YES,PERM,YES,PERM,Rink,YES,Community,"998, prom VALIN",Centre communautaire,,Oui,Perm,Oui,Oui,patinoire,Oui,PARC ET CENTRE COMMUNAUTAIRE SOUTH FALLINGBROOK,Y,45.47102800670,-75.46263734040
1677,163,RANCOURT PARK,858 SCALA AVE Cumberland,19,"Formerly known as ""PROVENCE"" - Ecole Decoverte ?",Scala/Swallowtail,SCHOOL,,YES,PERM,YES,PERM,Rink,YES,Community,"858, av SCALA",?cole,,Oui,Perm,Oui,Oui,patinoire,Oui,PARC RANCOURT,Y,45.46472521530,-75.46003582490
324,201,RICHELIEU VANIER,300 DES PERES BLANC Vanier,12,,Lavergne/Avenue Des Peres Blanc,NONE,YES,NO,NONE,CLOSED,PERM,Rink with Puddle,NO,Community,"300, av DES PERES BLANC",None,Oui,Non,Non,Non,Oui,patinoire avec flaque,Non,PARC RICHELIEU,Y,45.44417163050,-75.66055136880
1672,4,BLACK TERN PARK,53 BLACK TERN CRES Kanata,23,,Stonehaven/Bridgestone,NONE,NO,NO,NONE,NO,NONE,Puddle,NO,Community,"53, crois BLACK TERN",None,Non,Non,Non,Non,Non,flaque,Non,PARC BLACK TERN,Y,45.29406457080,-75.85402264360
581,165,ROY G HOBBES COMMUNITY CENTRE AND PARK,109 LARCH CRES Cumberland,1,,Jeanne D'arc/Champlain,COMMUNITY CENTER,,YES,PERM,YES,PERM,Rink,YES,Community,"109, crois LARCH",Centre communautaire,,Oui,Perm,Oui,Oui,patinoire,Oui,PARC ET CENTRE COMMUNAUTAIRE ROY-G-HOBBES,Y,45.48773445700,-75.52173506080
343,161,QUEENSWOOD HEIGHTS CENTENNIAL PARK AND COMMUNITY CENTRE,1485 DUFORD DR Cumberland,1,,10th Line/ Amiens,COMMUNITY CENTER,,YES,TEMP,YES,PERM,RINK with Puddle,YES,Community,"1485, prom DUFORD",Centre communautaire,,Oui,Temp,Oui,Oui,patinoire avec flaque,Oui,CENTRE COMMUNAUTAIRE ET PARC QUEENSWOOD HEIGHTS CENTENNIAL,Y,45.47136005710,-75.50766154740
326,138,CHAPEL HILL PARK,1556 FOREST VALLEY DR Gloucester,2,,Meadowglen/Forest Valley,NONE,,YES,TEMP,no,PERM,RINK with Puddle,NO,Community,"1556, prom FOREST VALLEY",None,,Oui,Temp,Non,Oui,patinoire avec flaque,Non,PARC CHAPEL HILL,Y,45.45113033970,-75.53860935500
697,143,GERALD POULIN PARK,1899 DU CLAIRVAUX RD Gloucester,2,,Meadowglen/Orleans,NONE,,NO,NONE,no,NONE,Double Surface,NO,City,"1899, ch DU CLAIRVAUX",None,,Non,Non,Non,Non,surface double,Non,PARC GERALD-POULIN,Y,45.44363507740,-75.53878693640
108,147,JOE JAMIESON PARK,6940 BILBERRY DR Gloucester,1,,Jeanne D'arc/Orleans,NONE,,NO,NONE,no,NONE,Puddle,NO,City,"6940, prom BILBERRY",None,,Non,Non,Non,Non,flaque,Non,PARC JOE-JAMIESON,Y,45.48114652330,-75.52378982560
591,152,MARSHA PARK,855 LAWNSBERRY DR Cumberland,1,,Jeanna D'Arc/Willow,FIELDHOUSE,,YES,PERM,YES,PERM,RINK with Puddle,YES,Community,"855, prom LAWNSBERRY",Pavillon,,Oui,Perm,Oui,Oui,patinoire avec flaque,Oui,PARC MARSHA,Y,45.48565000230,-75.51254999980
734,119,MUNSTER COMMUNITY CENTRE AND DOGWOOD PARK,2890 MUNSTER RD Goulbourn,21,,Bleek/Munster,COMMUNITY BUILDING,,YES,TEMP,YES,PERM,RINK with Puddle,NO,Community,"2890, ch MUNSTER",Installation communautaire,,Oui,Temp,Oui,Oui,patinoire avec flaque,Non,CENTRE COMMUNAUTAIRE DE MUNSTER ET PARC DOGWOOD,Y,45.16287162540,-75.93965512540
22,11,FRANK RYAN PARK,950 ALPINE AVE Old Ottawa,7,,Pincrest/Richmond,FIELDHOUSE,YES,YES,TEMP,YES,TEMP,RINK with Puddle,YES,Community,"950, av ALPINE",Pavillon,Oui,Oui,Temp,Oui,Oui,patinoire avec flaque,Oui,PARC FRANK-RYAN,Y,45.35620267130,-75.78990736400
609,219,GEOFF WIGHTMAN PARK,89 LEOPOLDS DR Old Ottawa,16,,Riverside/Leopolds,TRAILER,YES,NO,NONE,NO,PERM,Double Surface,NO,Community,"89, prom LEOPOLDS",Trailer,Oui,Non,Non,Non,Oui,surface double,Non,PARC GEOFF-WIGHTMAN,Y,45.35252917750,-75.69721852720
339,114,MCKENDRY PARK,2567 DOW ST Osgoode,20,Metcalfe,Dow/Victoria,COMMUNITY BUILDING,,YES,TEMP,NO,PERM,Rink,NO,Community,"2567, rue DOW",Installation communautaire,,Oui,Temp,Non,Oui,patinoire,Non,PARC MCKENDRY,Y,45.23705000220,-75.47943333310
943,170,VARS CENTENIAL PARK / ALCIDE TRUDEAU PARK,5715 ROCKDALE RD Cumberland,19,,Russell/Rockdale,FIELDHOUSE,,YES,TEMP,YES,PERM,Rink,YES,Community,"5715, ch ROCKDALE",Pavillon,,Oui,Temp,Oui,Oui,patinoire,Oui,PARC VARS CENTENIAL  / PARC ALCIDE-TRUDEAU,Y,45.35596556720,-75.35019487380
48,178,CECIL MORRISON PARK,1332 AVENUE N  Old Ottawa,18,,Belfast/Tremblay,FIELDHOUSE,YES,NO,NONE,YES,PERM,Puddle,NO,Community,"1332,  AVENUE N",Pavillon,Oui,Non,Non,Oui,Oui,flaque,Non,PARC CECIL-MORRISON,Y,45.41705000210,-75.64529999980
459,31,RUTH WILDGEN PARK,1099 GRENON AVE Old Ottawa,7,,Pinecrest/Dumaurier,FIELDHOUSE,YES,YES,TEMP,YES,BOTH,RINK with Puddle,YES,Community,"1099, av GRENON",Pavillon,Oui,Oui,Temp,Oui,Oui,patinoire avec flaque,Oui,PARC RUTH-WILDGEN,Y,45.35101612680,-75.79601066540
335,205,ST. PAUL'S PARK,469 DONALD STREET Old Ottawa,13,(see comments),Donald/Frances,FIELDHOUSE,YES,NO,NONE,YES,TEMP,Double Surface,NO,Community,"469, rue DONALD",Pavillon,Oui,Non,Non,Oui,Oui,surface double,Non,PARC ST. PAUL'S,Y,45.42952460140,-75.64788751560
385,100,FAIRMONT PARK,265 FAIRMONT AVE Old Ottawa,15,,Carling/Fairmont,TRAILER,,NO,NONE,NO,PERM,Double Surface,YES,Community,"265, av FAIRMONT",Trailer,,Non,Non,Non,Oui,surface double,Oui,PARC FAIRMONT,Y,45.39836659140,-75.71918035100
1171,110,KARS RECREATION CENTRE,1604 OLD WELLINGTON ST Rideau,21,,Wellington/Rideau,COMMUNITY BUILDING,,YES,PERM,YES,YES,RINK with Puddle,NO,Community,"1604, rue OLD WELLINGTON",Installation communautaire,,Oui,Perm,Oui,Oui,patinoire avec flaque,Non,CENTRE R?CR?ATIF KARS,Y,45.14865559470,-75.64837647940
495,101,FISHER PARK,250 HOLLAND AVE Old Ottawa,15,,Holland/Byron,TRAILER - NEPEAN,,YES,TEMP,SCHOOL,PERM,RINK with Puddle,YES,Community,"250, av HOLLAND",Trailer,,Oui,Temp,Oui,Oui,patinoire avec flaque,Oui,PARC FISHER,Y,45.39651666870,-75.73171666640
514,133,BEARBROOK PARK AND POOL,99 BEARBROOK RD Gloucester,2,,Bearbrook/Innes,FIELDHOUSE,,YES,PERM,NO,PERM,RINK with Puddle,YES,Community,"99, ch BEARBROOK",Pavillon,,Oui,Perm,Non,Oui,patinoire avec flaque,Oui,PARC ET PISCINE BEARBROOK,Y,45.43386678690,-75.56351732850
444,47,BARRY MULLEN PARK,152 GRANDVIEW RD Nepean,7,,Moodie/Carling,FIELDHOUSE,YES,YES,TEMP,NO,PERM,Rink,YES,Community,"152, ch GRANDVIEW",Pavillon,Oui,Oui,Temp,Non,Oui,patinoire,Oui,PARC BARRY-MULLEN,Y,45.36068685740,-75.85682806610
1588,52,CELEBRATION PARK,200 CENTRAL PARK DR Old Ottawa,16,Central Park,Basline/Clyde,NONE,NO,NO,NONE,NO,TEMP,Double Surface,NO,Community,"200, prom CENTRAL PARK",None,Non,Non,Non,Non,Oui,surface double,Non,PARC CELEBRATION,Y,45.36713297230,-75.73539538930
1651,135,BLUE WILLOW PARK,6011 LONGLEAF DR Gloucester,2,CHAPEL HILL SOUTH,Longleaf/Orleans Bvld.,TRAILER,,YES,TEMP,NO,PERM,RINK with Puddle,YES,Community,"6011, prom LONGLEAF",Trailer,,Oui,Temp,Non,Oui,patinoire avec flaque,Oui,PARC BLUE WILLOW,Y,45.43665683780,-75.52866867190
1573,185,DR. JOHN HOPPS PARK,300 DEN HAAG DR Old Ottawa,13,,Montreal/Den Haag,NONE,NO,NO,NONE,NO,PERM,Double Surface,NO,Community,"300, prom DEN HAAG",None,Non,Non,Non,Non,Oui,surface double,Non,PARC DR.-JOHN-HOPPS,Y,45.44014758010,-75.63222456510
235,15,KATIMAVIK SCHOOL,64 CHIMO DR Kanata,23,,Eagleson/Equestrain,SCHOOL,NO,YES,TEMP,NO,TEMP,RINK with Puddle,NO,Community,"64, prom CHIMO",?cole,Non,Oui,Temp,Non,Oui,patinoire avec flaque,Non,PARC CATTAIL CREEK,Y,45.31052821310,-75.89000090780
0,120,MUTCHMOR SCHOOL,185 FIFTH AVENUE Old Ottawa,17,,Bank/Fifth,TRAILER,,YES,TEMP,NO,TEMP,RINK with Puddle,YES,Community,"185, av FIFTH",Trailer,,Oui,Temp,Non,Oui,patinoire avec flaque,Oui,?COLE MUTCHMOR,Y,45.40062132440,-75.69084886960
141,29,REGINA SCHOOL,2599 REGINA STREET Ottawa,7,,Richmond/Ottawa River Parkway,NONE,NO,NO,NONE,NO,PERM,Double Surface,NO,Community,"2599, rue REGINA",None,Non,Non,Non,Non,Oui,surface double,Non,PARC LINCOLN HEIGHTS,Y,45.36743138810,-75.79070387420
1031,236,RUSSELL BOYD PARK,1735 ST. BERNARD ST Gloucester,10,,Bank/St.Bernard,NONE,NO,NO,NONE,NO,PERM,Puddle,NO,Community,"1735, rue ST. BERNARD",None,Non,Non,Non,Non,Oui,flaque,Non,PARC RUSSELL-BOYD,Y,45.35189259800,-75.62601235120
1615,39,W.C. BOWES PARK,1251 HALTON TER Kanata,4,,Klondike/March,NONE,NO,NO,NONE,NO,NONE,Puddle,NO,Community,"1251, terr HALTON",None,Non,Non,Non,Non,Non,flaque,Non,PARC W.-C.-BOWES,Y,45.35067847880,-75.94076282810
842,162,QUEENSWOOD RIDGE PARK,346 KENNEDY LANE Cumberland,1,,St. Joseph/Prestone,FIELDHOUSE,,YES,PERM,YES,PERM,RINK with Puddle,YES,Community,"346, lane KENNEDY",Pavillon,,Oui,Perm,Oui,Oui,patinoire avec flaque,Oui,PARC QUEENSWOOD RIDGE,Y,45.47802133970,-75.50375099400
1666,212,BUTTERFLY PARK,711 LONG POINT CIR Gloucester,22,Findley Creek,Findlay Creek/Long Point Circle,NONE,,NO,NONE,NO,NONE,Double Surface,NO,Community,"711, cercle LONG POINT",None,,Non,Non,Non,Non,surface double,Non,PARC BUTTERFLY,Y,45.32010897940,-75.59941301970
1663,118,MOUNTAIN MEADOWS PARK,3740 MOUNTAIN MEADOWS CRES Gloucester,22,,Spratt/Canyon,NONE,,NO,NONE,NO,NONE,Puddle,NO,Community,"3740, crois MOUNTAIN MEADOWS",None,,Non,Non,Non,Non,flaque,Non,PARC MOUNTAIN MEADOWS,Y,45.28408077550,-75.68469724870
1633,33,SAWYER'S MEADOW PARK,80 SAWYER WAY Kanata,23,,Stonehaven/Richmond,NONE,NO,NO,NONE,NO,NONE,Puddle,NO,Community,"80, voie SAWYER",None,Non,Non,Non,Non,Non,flaque,Non,PARC SAWYER'S MEADOW,Y,45.28272207390,-75.84153621370
323,99,EVERGREEN PARK,906 DENISON CRES Old Ottawa,15,,,NONE,,NO,NONE,NO,NONE,Puddle,NO,Community,"906, crois DENISON",None,,Non,Non,Non,Non,flaque,Non,PARC EVERGREEN,Y,45.37291249890,-75.75363576860
1671,34,SCISSON'S PARK,96 BRIDLE PARK DR Kanata,23,,Stonehaven/Bridlepark,NONE,NO,NO,NONE,NO,NONE,Puddle,NO,Community,"96, prom BRIDLE PARK",None,Non,Non,Non,Non,Non,flaque,Non,PARC SCISSON'S,Y,45.28324832290,-75.84951730110
0,77,ST. GREGORY SCHOOL,148 MEADOWLANDS DR Nepean,8,(St Gregory School) Meadowlands Public School,Meadowlands/Thatcher,TRAILER - NEPEAN,YES,YES,TEMP,NO,PERM,Rink,YES,Community,"148, prom MEADOWLANDS",Trailer,Oui,Oui,Temp,Non,Oui,patinoire,Oui,?COLE ST. GREGORY,Y,45.34398654290,-75.74994551820
1682,144,GLANDRIEL PARK,2130 VALIN ST Cumberland,1,"Formerly known as CARDINAL CREEK and ""New Valin"" and ""Trim""",Valin/Glandriel,NONE,,NO,NONE,NO,NONE,Puddle (Low Boards),NO,Community,"2130, rue VALIN",None,,Non,Non,Non,Non,flaque (conseils faible),Non,PARC GLANDRIEL,Y,45.47485190500,-75.45240948370
2119,124,SPRATT PARK,4191 SPRATT ROAD Gloucester,22,,Limebank/Spratt,NONE,,YES,TEMP,NO,,RINK with Puddle,NO,Community,"4191, ch SPRATT",None,,Oui,Temp,Non,,patinoire avec flaque,Non,PARC SPRATT,Y,45.28023901560,-75.68586228900
3,16,KENSON PARK,1265 ADIRONDACK DR Old Ottawa,8,,Katimavik/Castlefrank,NONE,NO,NO,NONE,NO,NONE,Puddle,NO,Community,"1265, prom ADIRONDACK",None,Non,Non,Non,Non,Non,flaque,Non,PARC KENSON,Y,45.35413792210,-75.76556097390
1656,50,BERRY GLEN PARK,36 BERRY GLEN ST Nepean,22,,Prince of Wales/Woodroffe,NONE,NO,YES,TEMP,NO,PERM,RINK with Puddle,NO,Community,"36, rue BERRY GLEN",None,Non,Oui,Temp,Non,Oui,patinoire avec flaque,Non,PARC BERRY-GLEN,Y,45.26682588430,-75.71286303880
2109,245,KEYROCK PARK,401 BRUNSKILL WAY Kanata,4,,,NONE,NO,NO,NONE,NO,NONE,Puddle,NO,Community,"401, voie BRUNSKILL",None,Non,Non,Non,Non,Non,flaque,Non,PARC KEYROCK,Y,45.32160149290,-75.93055129540
694,23,MEADOWBREEZE PARK,98 MEADOWBREEZE DR Kanata,23,,Eagleson/Bridgestone,NONE,NO,YES,TEMP,NO,TEMP,Rink,NO,Community,"98, prom MEADOWBREEZE",None,Non,Oui,Temp,Non,Oui,patinoire,Non,PARC MEADOWBREEZE,Y,45.27435000240,-75.85388333310
969,36,STEPHEN LEACOCK PUBLIC SCHOOL,9 BEAVERBROOK RD Kanata,4,,Beaverbrook/Leacock,NONE,NO,YES,TEMP,NO,TEMP,RINK with Puddle,NO,Community,"9, ch BEAVERBROOK",None,Non,Oui,Temp,Non,Oui,patinoire avec flaque,Non,,Y,45.32536179740,-75.90165355420
2085,32,JUANITA SNELGROVE PARK,374 KINGHORN CRES Kanata,4,Briarbrook & Briar ridge,,BUNKER,NO,(YES) - maybe,PERM,NO,YES,Rink (Maybe Puddle for 2011),NO,Community,"374, crois KINGHORN",Bunker,Non,Oui,Perm,Non,Oui,patinoire,Non,PARC JUANITA-SNELGROVE,Y,45.35601594850,-75.92538953900
1626,127,TRUSTEE M. CURRY PARK,85 HARTSMERE DR Goulbourn,6,M Curry Park,Arrowood/Hartsmere,NONE,,(NO) - might have boards in 2010-11,TEMP,NO,NONE,Rink,NO,Community,"85, prom HARTSMERE",None,,Oui,Temp,Non,Non,patinoire,Non,PARC TRUSTEE M. CURRY,Y,45.24779458120,-75.90480738030
1142,202,VILLAGE GREEN PARK (ROCKCLIFFE),270 SPRINGFIELD RD Rockcliffe Park,13,ROCKCLIFFE,Buena Vista/Springfield,TRAILER,YES,YES,TEMP,NO,PERM,RINK with Puddle,YES,Community,"270, ch SPRINGFIELD",Trailer,Oui,Oui,Temp,Non,Oui,patinoire avec flaque,Oui,PARC VILLAGE GREEN,Y,45.44965467010,-75.67670793450
260,235,FRANK J. LICARI PARK,1990 COCHRANE ST Old Ottawa,16,Frank J. Licari Park,Cochrane/Paardeburgh,BRICK FIELDHOUSE,YES,YES,TEMP,YES,TEMP,Double Surface (Low Boards),YES,Community,"1990, rue COCHRANE",Pavillon,Oui,Oui,Temp,Oui,Oui,surface double (conseils faible),Oui,PARC FRANK J. LICARI,Y,45.36864374210,-75.65751967000
2457,278,DIAMOND JUBILEE PARK,2810 FINDLAY CREEK DR Gloucester,22,,,,,,,,,,,,"ADRESSE_DU_PARC	2810, PROMENADE FINDLAY CREEK, Gloucester",,,,,,,,,PARC DU JUBIL? DE DIAMANTE,Y,45.31480649530,-75.61011819880
365,277,HARKNESS PARK,6020 EIGHTH LINE RD Gloucester,19,,,,,,,,,,,,PARC HARKNESS,,,,,,,,,,Y,45.36517574650,-75.46395995900
1325,157,MICHAEL BUDD PARKK,2359 ORIENT PARK DR Gloucester,2,Michael Budd Park,Innes/Rhondel,NONE,,YES,TEMP - End Boards,NO,PERM,Puddle (End Boards),NO,Community,"2359, prom ORIENT PARK",None,,Oui,Temp,Non,Oui,flaque (conseils de fin),Non,PARC MICHAEL-BUDD,Y,45.43301259230,-75.55473395790
252,155,NORMAN JOHNSTON SCHOOL,2401 CLEROUX CRES Gloucester,2,,Innes/Cleroux,FIELDHOUSE,YES,YES,TEMP,NO,PERM,RINK with Puddle,YES,Community,"2401, crois CLEROUX",Pavillon,Oui,Oui,Temp,Non,Oui,patinoire avec flaque,Oui,PARC JOHN-KEMP,Y,45.43752239520,-75.54932532730
749,154,NORM CHILDS (NINTH LINE PARK AND CARLSBAD COMMUNITY CENTRE),5065 NINTH LINE RD Gloucester,19,,Farmers Way/Ninth Line,COMMUNITY CENTER,,YES,PERM,YES,PERM,Rink,YES,Community,"5065, ch NINTH LINE",Centre communautaire,,Oui,Perm,Oui,Oui,patinoire,Oui,PARC NINTH LINE ET CENTRE COMMUNAUTAIRE DE CARLSBAD (NORM CHILDS),Y,45.33434507470,-75.49471541130
65,58,FISHER HEIGHTS PARK,31 SUTTON PL Nepean,9,,Baseline/Farlene,COMMUNITY BUILDING,YES,YES,TEMP,NO,PERM,Rink,YES,Community,"31, place SUTTON",Installation communautaire,Oui,Oui,Temp,Non,Oui,patinoire,Oui,PARC FISHER HEIGHTS,Y,45.36486666930,-75.72178333320
255,86,BELLEVUE MANOR,1520 CALDWELL AVE Old Ottawa,16,,Merivale/Morisset,TRAILER,,NO,NONE,NO,TEMP,Double Surface,YES,Community,"1520, av CALDWELL",Trailer,,Non,Non,Non,Oui,surface double,Oui,BELLEVUE MANOR,Y,45.37269571470,-75.73989138370
1133,10,FITZROY HARBOUR,100 CLIFFORD CAMPBELL ST West Carleton,5,,Galetta/Carp,COMMUNITY CENTER,YES,YES,PERM,YES,PERM,Rink,YES,Community,"100, rue CLIFFORD CAMPBELL",Centre communautaire,Oui,Oui,Perm,Oui,Oui,patinoire,Oui,FITZROY HARBOUR,Y,45.47040911540,-76.20600373090
2169,248,ALLEGRO,434 Sparkman Ave.,19,,,,,,,,,,,,,,,,,,,,,,Y,45.44707300660,-75.47670019250
1122,274,UPLANDS PARK,3165 UPLANDS DR Old Ottawa,16,,,,,,,,,,,,"3165, Prom UPLANDS",,,,,,,,,PARC UPLANDS,Y,45.34892024370,-75.68221325840
95,270,APPLEWOOD,134 Begonia Ave.,18,,,,,,,,,,,,,,,,,,,,,,Y,45.38798707700,-75.66887895750
1983,267,BANDMASTER,230 Mistral Way,6,,,,,,,,,,,,,,,,,,,,,,Y,45.28689961190,-75.92070509400
994,246,TILLBURY PARK,725 SHERBOURNE RD Old Ottawa,15,,,,,,,,,,,,"725, ch SHERBOURNE",,,,,,,,,PARC TILLBURY,Y,45.37808349390,-75.75966069750
2456,272,FRESHWATER PARK,3025 FRESHWATER WAY Nepean,3,,,,,,,,,,,,,,,,,,,,,MINIPARC FRESHWATER,Y,45.25203675290,-75.74641361160
807,268,FORBES,669 Paul Ave,13,,,,,,,,,,,,,,,,,,,,,,Y,45.43930574280,-75.64280076260
2425,269,ST. AMBROISE,330 Meilleur Priv,12,,,,,,,,,,,,,,,,,,,,,,Y,45.43850762780,-75.66890757880
621,43,WOODROFFE PARK,180 LOCKHART AVE Old Ottawa,7,,Byron/Woodroffe,FIELDHOUSE,YES,YES,TEMP,YES,TEMP,RINK with Puddle,YES,Community,"180, av LOCKHART",Pavillon,Oui,Oui,Temp,Oui,Oui,patinoire avec flaque,Oui,PARC WOODROFFE,Y,45.37687736260,-75.77287592360
102,19,KINGSMERE PARK,2074 BENJAMIN AVE Old Ottawa,7,,Carling/Hare,FIELDHOUSE,YES,YES,TEMP,YES,TEMP,RINK with Puddle,YES,Community,"2074, av BENJAMIN",Pavillon,Oui,Oui,Temp,Oui,Oui,patinoire avec flaque,Oui,PARC KINGSMERE,Y,45.36538278900,-75.76290257820
7,1,AGINCOURT PARK,1269 ALBANY DR Old Ottawa,8,,Albany/Navaho,FIELDHOUSE,YES,YES,TEMP,YES,TEMP,Rink with Puddle,YES,Community,"1269, prom ALBANY",Pavillon,Oui,Oui,Temp,Oui,Oui,patinoire avec flaque,Oui,PARC AGINCOURT,Y,45.36059275030,-75.75367303600
338,128,WESTBORO KIWANIS PARK,411 DOVERCOURT AVE Old Ottawa,15,,Dovercourt/Cole,TRAILER,,YES,TEMP,YES,TEMP,RINK with Puddle,YES,Community,"411, av DOVERCOURT",Trailer,,Oui,Temp,Oui,Oui,patinoire avec flaque,Oui,PARC WESTBORO KIWANIS,Y,45.38373662680,-75.75396636410
432,105,GLEBE MEMORIAL PARK,75 GLENDALE AVE Old Ottawa,17,,Bronson/Renfrew,SHACK,,NO,NONE,NO,TEMP,Double Surface,YES,Community,"75, av GLENDALE",Cabane,,Non,Non,Non,Oui,surface double,Oui,PARC GLEBE MEMORIAL,Y,45.40483291230,-75.69884505320
797,42,WHITEHAVEN / GEORGE C. BROWN PARK,970 PARKHAVEN AVE Old Ottawa,7,,Carling/Woodroffe,TRAILER,YES,NO,NONE,NO,PERM,Double Surface,YES,Community,"970, av PARKHAVEN",Trailer,Oui,Non,Non,Non,Oui,surface double,Oui,PARC WHITEHAVEN / PARC GEORGE-C.-BROWN,Y,45.36157012080,-75.77610688170
92,98,EV TREMBLAY PARK,108 BEECH ST Old Ottawa,15,,Carling/Bayswater,FIELDHOUSE,,YES,TEMP,YES,TEMP,RINK with Puddle,YES,Community,"108, rue BEECH",Pavillon,,Oui,Temp,Oui,Oui,patinoire avec flaque,Oui,PARC EV-TREMBLAY,Y,45.39960939050,-75.71169793440
808,233,PUSHMAN PARK,1270 PEBBLE RD Old Ottawa,10,,Cahill Dr./ Pebble,WOOD SHACK & BRICK FIELDHOUSE,YES,YES,TEMP,NO,TEMP,RINK with Puddle,YES,Community,"1270, ch PEBBLE",Cabane,Oui,Oui,Temp,Non,Oui,patinoire avec flaque,Oui,PARC R.-GEORGE-PUSHMAN,Y,45.35982414030,-75.64878542440
880,209,ALTA VISTA PARK,1309 RANDALL AVE Old Ottawa,18,,Randall/Beaver,BRICK FIELDHOUSE,YES,NO,NONE,YES,TEMP,Double Surface,YES,Community,"1309, av RANDALL",Pavillon,Oui,Non,Non,Oui,Oui,surface double,Oui,PARC ALTA VISTA,Y,45.38372571310,-75.66638226610
968,237,SANDLEWOOD PARK,2850 SANDALWOOD DR Old Ottawa,18,,Sandalwood/Baycrest,BRICK FIELDHOUSE,YES,YES,TEMP,YES,TEMP,RINK with Puddle,YES,Community,"2850, prom SANDALWOOD",Pavillon,Oui,Oui,Temp,Oui,Oui,patinoire avec flaque,Oui,PARC SANDLEWOOD,Y,45.37854899040,-75.64773101370
403,239,SHAREL PARK,1900 FLORIDA AVE Old Ottawa,18,,Florida/Atwater,BRICK FIELDHOUSE,YES,NO,NONE,NO,TEMP,Double Surface,YES,Community,"1900, av FLORIDA",Pavillon,Oui,Non,Non,Non,Oui,surface double,Oui,PARC SHAREL,Y,45.38251742290,-75.63845958790
130,228,OWL PARK,180 BOURBON ST Old Ottawa,16,,Cahill dr. W/Owl,BRICK FIELDHOUSE,YES,YES,TEMP,YES,BOTH,RINK with Puddle,YES,Community,"180, rue BOURBON",Pavillon,Oui,Oui,Temp,Oui,Oui,patinoire avec flaque,Oui,PARC OWL,Y,45.35435938630,-75.66407414510
1062,75,ROONEY PARK,15 STEEPLE HILL CRES Nepean,21,,Fallowfield/Steeple hill,TRAILER - NEPEAN,YES,YES,TEMP,NO,PERM,Rink,YES,Community,"15, crois STEEPLE HILL",Trailer,Oui,Oui,Temp,Non,Oui,patinoire,Oui,PARC ROONEY,Y,45.26787048740,-75.82622970340
550,193,MARCHAND PARK,1163 KENASTON ST Gloucester,11,,Cyrville/Labrie,NONE,NO,YES,TEMP,NO,PERM,Puddle,NO,City,"1163, rue KENASTON",None,Non,Oui,Temp,Non,Oui,flaque,Non,PARC MARCHAND,Y,45.41847015890,-75.62459234730
208,176,BINGHAM PARK,145 CATHCART ST Old Ottawa,12,(see comments),Dalhouise/Cathcart,FIELDHOUSE,YES,YES,TEMP,YES,PERM,Rink,YES,Community,"145, rue CATHCART",Pavillon,Oui,Oui,Temp,Oui,Oui,patinoire,Oui,PARC BINGHAM,Y,45.43328019020,-75.69613045650
1334,7,CONSTANCE BAY COMMUNITY CENTRE PARK,262 LEN PURCELL DR West Carleton,5,Constance and Bucham's Bay Community Association,Len Purcell Drive/Fireside,COMMUNITY CENTER,YES,YES,PERM,YES,PERM,Rink,YES,Community,"262, prom LEN PURCELL",Centre communautaire,Oui,Oui,Perm,Oui,Oui,patinoire,Oui,PARC DU CENTRE COMMUNAUTAIRE DE CONSTANCE BAY,Y,45.49893714960,-76.09285799410
768,6,CARROL HOMESTEAD COMMUNITY PARK/UPPER HUNTLEY COMMUNITY CENTRE,3447 OLD ALMONTE RD West Carleton,5,,Old Almonte/Corkery,COMMUNITY BUILDING,YES,YES,PERM,YES,PERM,Rink,NO,Community,"3447, ch OLD ALMONTE",Installation communautaire,Oui,Oui,Perm,Oui,Oui,patinoire,Non,PARC COMMUNAUTAIRE CARROL-HOMESTEAD / CENTRE COMMUNAUTAIRE UPPER HUNTLEY,Y,45.25943333550,-76.06225000030
348,171,WILFRED MURRAY PARK KENNEDY ARENA,1115 DUNNING RD Cumberland,19,,Old Montreal/Dunning,ARENA,,YES,PERM,YES,PERM,Rink,YES,Community,"1115, ch DUNNING",Arﬁne,,Oui,Perm,Oui,Oui,patinoire,Oui,PARC WILFRED-MURRAY  / AR?NA ET SALLE COMMUNAUTAIRE R.-J.-KENNEDY,Y,45.51499034620,-75.40266439130
267,153,NAVAN CENTENNIAL PARK,1279 COLONIAL ROAD Cumberland,19,,,ARENA,,YES,TEMP,YES,PERM,Double Surface (End Boards),NO,Community,"1279, ch COLONIAL",Arﬁne,,Oui,Temp,Oui,Oui,surface double (conseils de fin),Non,PARC NAVAN CENTENNIAL,Y,45.41978295630,-75.42132204610
1032,196,OPTIMISTE PARK,43 STE. CECILE ST Vanier,12,,Beechwood/Ste. Cecile,FIELDHOUSE,NO,YES,TEMP,CLOSED - yes,PERM,Rink,NO,City,"43, rue STE. CECILE",Pavillon,Non,Oui,Temp,Oui,Oui,patinoire,Non,PARC OPTIMISTE,Y,45.44244018850,-75.66904160730
249,88,BRANTWOOD PARK,120 CLEGG ST Old Ottawa,17,,Main/Clegg,COMMUNITY BUILDING,,NO,NONE,YES,TEMP,Double Surface,YES,Community,"120, rue CLEGG",Installation communautaire,,Non,Non,Oui,Oui,surface double,Oui,PARC BRANTWOOD,Y,45.40539705240,-75.67116750070
120,216,ELIZABETH MANLEY PARK,1161 BLOHM DR Old Ottawa,10,,Blohm/Lorry Greenberg,BRICK FIELDHOUSE,YES,YES,TEMP,YES,TEMP,RINK with Puddle,YES,Community,"1161, prom BLOHM",Pavillon,Oui,Oui,Temp,Oui,Oui,patinoire avec flaque,Oui,PARC ELIZABETH-MANLEY,Y,45.37029271330,-75.61956860890
219,49,BEN FRANKLIN PLACE,101 CENTREPOINTE DR Nepean,8,,Woodroffe/Tallwood,PORTABLES,YES,NO,NONE,BFP,TEMP,Artificial Ice Surface,NO,City,"101, prom CENTREPOINTE",Portables,Oui,Non,Non,Oui,Oui,la surface de glace artificielle,Non,PLACE-BEN-FRANKLIN,Y,45.34431287920,-75.76382234150
220,53,CENTREPOINTE PARK,114 CENTREPOINTE DR Nepean,8,,Centrepoint/Stonebriar,TRAILER - NEPEAN,YES,YES,TEMP,NO,TEMP,Rink,YES,Community,"114, prom CENTREPOINTE",Trailer,Oui,Oui,Temp,Non,Oui,patinoire,Oui,PARC CENTREPOINTE,Y,45.33979505730,-75.77101968280
231,54,CHARING PARK,37 CHARTWELL AVE Nepean,9,,Craig Henry/Conover,TRAILER - NEPEAN,YES,YES,TEMP,NO,PERM,RINK with Puddle,YES,Community,"37, av CHARTWELL",Trailer,Oui,Oui,Temp,Non,Oui,patinoire avec flaque,Oui,PARC CHARING,Y,45.33254726670,-75.76650970530
241,180,CITY CENTRE PARK,1800 CITY PARK DR Gloucester,11,,Ogilvie/Palmerston,NONE,NO,NO,NONE,NO,PERM,Puddle,NO,Community,"1800, prom CITY PARK",None,Non,Non,Non,Non,Oui,flaque,Non,PARC CITY CENTRE,Y,45.42868697070,-75.61657643020
584,87,BELLEVUE RAVEN PARK,1500 LAROSE AVE Old Ottawa,16,,Merivale/Kirkwood,FIELDHOUSE,,NO,NONE,YES,PERM,Double Surface,YES,Community,"1500, av LAROSE",Pavillon,,Non,Non,Oui,Oui,surface double,Oui,PARC RAVEN,Y,45.37630552780,-75.74080631540
300,182,CUMMINGS PARK (GLOUCESTER),980 CUMMINGS AVE Gloucester,11,,Cummings/Donald,FIELDHOUSE,YES,YES,TEMP,NO,PERM,Rink,YES,Community,"980, av CUMMINGS",Pavillon,Oui,Oui,Temp,Non,Oui,patinoire,Oui,PARC CUMMINGS  (GLOUCESTER),Y,45.43122941420,-75.63496519890
305,116,MEADOWBROOK PARK (RIDEAU),2972 DANBURY WAY Rideau,21,,Prince of wales/Danbury,NONE,,YES,TEMP,NO,NONE,RINK with Puddle,NO,Community,"2972, voie DANBURY",None,,Oui,Temp,Non,Non,patinoire avec flaque,Non,PARC MEADOWBROOK  (RIDEAU),Y,45.13914804210,-75.71954419920
330,92,CENTENNIAL PARK,5572 DOCTOR LEACH DR Rideau,21,Manotick,Dr. Leach/Whitewood,ARENA / BUNKER,,YES,TEMP,YES,NONE,RINK with Puddle,NO,Community,"5572, prom DOCTOR LEACH",Arﬁne,,Oui,Temp,Oui,Non,patinoire avec flaque,Non,PARC CENTENNIAL,Y,45.22270884510,-75.68703732620
420,142,GARDENWAY PARK,2001 GARDENWAY DR Cumberland,19,,Charlemagne/Gardenway,SCHOOL,,YES,PERM,YES,PERM,Rink,YES,Community,"2001, prom GARDENWAY",?cole,,Oui,Perm,Oui,Oui,patinoire,Oui,PARC GARDENWAY,Y,45.46568052230,-75.48433386420
693,106,GREELY (ANDY SHIELDS PARK),1448 MEADOW DR Osgoode,20,Andy Shields Park,Bank/Parkway,COMMUNITY CENTER,,YES,PERM,NO,PERM,RINK with Puddle,NO,Community,"1448, prom MEADOW",Centre communautaire,,Oui,Perm,Non,Oui,patinoire avec flaque,Non,PARC ANDY-SHIELDS,Y,45.26095256280,-75.55666098150
526,131,BARNABE PARK,1797 DES EPINETTES AVE Gloucester,2,,Des Epinettes/Jeanne D'arc,NONE,,YES,TEMP,no,NONE,Puddle (End Boards),NO,City,"1797, av DES EPINETTES",None,,Oui,Temp,Non,Non,flaque (conseils de fin),Non,PARC BARNABE,Y,45.46073804920,-75.50818471780
596,225,LEDBURY PARK,1250 LEDBURY AVE Old Ottawa,16,,Ledbury/Banff,TRAILER,YES,YES,TEMP,NO,BOTH,RINK with Puddle,YES,Community,"1250, av LEDBURY",Trailer,Oui,Oui,Temp,Non,Oui,patinoire avec flaque,Oui,PARC LEDBURY,Y,45.36458709400,-75.65727237420
628,76,SOUTH NEPEAN PARK,700 LONGFIELDS DR Nepean,3,,Woodroffe/Longfields,COMMUNITY BUILDING,YES,YES,TEMP,YES,PERM,Rink,YES,Community,"700, prom LONGFIELDS",Installation communautaire,Oui,Oui,Temp,Oui,Oui,patinoire,Oui,PARC SOUTH NEPEAN,Y,45.28209993040,-75.74305171630
1506,96,CROSSING BRIDGE PARK,27 HOBIN STREET Goulbourn,6,,Beverly/Hobin,FIELDHOUSE,,YES,TEMP,NO,PERM,Rink,NO,Community,"27, rue HOBIN",Pavillon,,Oui,Temp,Non,Oui,patinoire,Non,PARC CROSSING BRIDGE,Y,45.26230581680,-75.93442665870
1309,156,NORTH VINEYARD PARK,6026 VOYAGEUR DR Gloucester,1,,Jeannae D'arc/Voyageur,NONE,,NO,NONE,no,NONE,Puddle,NO,City,"6026, prom VOYAGEUR",None,,Non,Non,Non,Non,flaque,Non,PARC NORTH VINEYARD,Y,45.47442173900,-75.55199171390
1070,55,CLARKE FIELDS PARK,93 HOULAHAN ST Nepean,3,,Moodie/Mckenna Casey,TRAILER - NEPEAN,YES,YES,TEMP,NO,PERM,Rink,YES,Community,"93, rue HOULAHAN",Trailer,Oui,Oui,Temp,Non,Oui,patinoire,Oui,PARC CLARKE FIELDS,Y,45.26180781660,-75.76826126220
1046,203,RUSSELL HEIGHTS,1750 RUSSELL AVE Old Ottawa,18,,Haig/Russell,COMMUNITY HOUSE (NO TRAILER),YES,NO,NONE,YES,PERM,Double Surface,YES,Community,"1750, av RUSSELL",Maison de la communaut⁄,Oui,Non,Non,Oui,Oui,surface double,Oui,PARC ALDA-BURT,Y,45.40420757510,-75.63368021090
675,177,CARSON GROVE PARK,1423 MATHESON RD Gloucester,11,,Ogilvie/Bathgate,FIELDHOUSE,YES,YES,TEMP,NO,PERM,Double Surface (End Boards),YES,Community,"1423, ch MATHESON",Pavillon,Oui,Oui,Temp,Non,Oui,surface double (conseils de fin),Oui,PARC CARSON GROVE,Y,45.43719412870,-75.62191691540
695,183,CYRVILLE PARK,1420 MEADOWBROOK RD Gloucester,11,,Meadowbrook/Cryville,NONE,NO,NO,NONE,NO,NONE,Puddle,NO,Community,"1420, ch MEADOWBROOK",None,Non,Non,Non,Non,Non,flaque,Non,PARC CYRVILLE,Y,45.41920828120,-75.60797407710
569,69,MANORDALE PARK,60 KNOXDALE RD Nepean,9,,Knoxdale/Woodroffe,COMMUNITY BUILDING,YES,YES,PERM,YES,PERM,RINK with Puddle,YES,Community,"60, ch KNOXDALE",Installation communautaire,Oui,Oui,Perm,Oui,Oui,patinoire avec flaque,Oui,PARC MANORDALE,Y,45.32972961840,-75.76121459880
988,81,WESTCLIFFE PARK,681 SEYTON DR Nepean,8,,Robertson/Westcliffe,COMMUNITY BUILDING,YES,YES,TEMP,YES,PERM,Rink,YES,Community,"681, prom SEYTON",Installation communautaire,Oui,Oui,Temp,Oui,Oui,patinoire,Oui,PARC WESTCLIFFE,Y,45.31596259480,-75.83505717870
31,214,CARLETON HEIGHTS PARK,1665 APELDOORN AVE Old Ottawa,16,,Appledoorn/Stormont,COMMUNITY CENTER,YES,YES,TEMP,YES,TEMP,RINK with Puddle,YES,Community,"1665, av APELDOORN",Centre communautaire,Oui,Oui,Temp,Oui,Oui,patinoire avec flaque,Oui,PARC CARLETON HEIGHTS,Y,45.35899293470,-75.70244151140
1190,79,TANGLEWOOD PARK,30 WOODFIELD DR Nepean,9,,Merivale/West Hunt Club,COMMUNITY BUILDING,YES,YES,TEMP,YES,PERM,RINK with Puddle,YES,Community,"30, prom WOODFIELD",Installation communautaire,Oui,Oui,Temp,Oui,Oui,patinoire avec flaque,Oui,PARC TANGLEWOOD,Y,45.33632945660,-75.73095264950
134,89,BREWER PARK,100 BREWER WAY Old Ottawa,17,,Sunnyside/Seneca,SHACK + TRAILER + ARENA,,YES,TEMP,YES,TEMP,RINK with Puddle + OVAL,YES,Community,"100, voie BREWER",Cabane,,Oui,Temp,Oui,Oui,patinoire avec flaque et OVAL,Oui,PARC BREWER,Y,45.38844757720,-75.68893240790
618,20,LISA PARK,6 LISA AVE Old Ottawa,8,,Baseline/Pinecrest,TRAILER,YES,NO,NONE,NO,PERM,Double Surface,YES,Community,"6, av LISA",Trailer,Oui,Non,Non,Non,Oui,surface double,Oui,PARC LISA,Y,45.34471666940,-75.78906666680
105,70,MERIVALE GARDENS PARK,25 BIE ST Nepean,9,,Woodroffe/Vaan,NONE,NO,NO,NONE,NO,PERM,Puddle,NO,City,"25, rue BIE",None,Non,Non,Non,Non,Oui,flaque,Non,PARC MERIVALE GARDENS,Y,45.32187517680,-75.74006302600
397,82,WEYBRIDGE PARK,75 FLANDERS ST Nepean,3,,Jockvale/Cedarview,TRAILER - NEPEAN,YES,YES,TEMP,NO,PERM,Rink,YES,Community,"75, rue FLANDERS",Trailer,Oui,Oui,Temp,Non,Oui,patinoire,Oui,PARC WEYBRIDGE,Y,45.27011580160,-75.76998694240
566,27,PARKWAY PARK,2095 KINGSLEY RD Old Ottawa,8,,Baseline/Cobden,FIELDHOUSE,YES,YES,TEMP,YES,TEMP,RINK with Puddle,YES,Community,"2095, ch KINGSLEY",Pavillon,Oui,Oui,Temp,Oui,Oui,patinoire avec flaque,Oui,PARC PARKWAY,Y,45.35583429220,-75.77614970690
234,59,GENERAL BURNS PARK,107 CHESTERTON DR Nepean,9,,Merivale/Viewmount,COMMUNITY BUILDING,YES,YES,TEMP,YES,PERM,RINK with Puddle,YES,Community,"107, prom CHESTERTON",Installation communautaire,Oui,Oui,Temp,Oui,Oui,patinoire avec flaque,Oui,PARC GENERAL-BURNS,Y,45.35215468510,-75.71976932620
582,65,LARKIN PARK,76 LARKIN DR Nepean,3,,Greenbank/Fallowfield,COMMUNITY BUILDING,YES,YES,TEMP,YES,PERM,Rink,YES,Community,"76, prom LARKIN",Installation communautaire,Oui,Oui,Temp,Oui,Oui,patinoire,Oui,PARC LARKIN,Y,45.28223330320,-75.76270475460
728,26,MORRISON PARK,1095 MORRISON DR Old Ottawa,8,,Morrison/Greenbank,SHACK,YES,YES,TEMP,NO,TEMP,RINK with Puddle,YES,Community,"1095, prom MORRISON",Cabane,Oui,Oui,Temp,Non,Oui,patinoire avec flaque,Oui,PARC MORRISON,Y,45.34517538150,-75.79426906460
1661,57,CRESTHAVEN PARK,28 CRESTHAVEN DRIVE Nepean,22,,Prince of Wales/Crestway,NONE,NO,YES,TEMP,NO,PERM,RINK with Puddle,NO,Community,"28, prom CRESTHAVEN",None,Non,Oui,Temp,Non,Oui,patinoire avec flaque,Non,PARC CRESTHAVEN,Y,45.28342144340,-75.70759386880
1022,17,KILREEN PARK,1250 SOUTHWOOD DR Old Ottawa,8,,Baseline/Kilreen,NONE,NO,YES,TEMP,YES,TEMP,Double Surface,NO,Community,"1250, prom SOUTHWOOD",None,Non,Oui,Temp,Oui,Oui,surface double,Non,PARC KILREEN,Y,45.34594936160,-75.78286502970
1652,61,GROVEHURST PARK,100 GROVEHURST DR Nepean,22,,Woodroffe/Standherd,NONE,NO,YES,TEMP,NO,PERM,RINK with Puddle,NO,Community,"100, prom GROVEHURST",None,Non,Oui,Temp,Non,Oui,patinoire avec flaque,Non,PARC GROVEHURST,Y,45.27679536260,-75.71219427270
104,2,BEL-AIR PARK,2149 BERWICK AVE Old Ottawa,8,,Woodroffe/Iris,FIELDHOUSE,YES,YES,TEMP,YES,TEMP,Double Surface (Low Boards),YES,Community,"2149, av BERWICK",Pavillon,Oui,Oui,Temp,Oui,Oui,surface double (conseils faible),Oui,PARC BEL-AIR,Y,45.35747586640,-75.76293599790
1678,159,PORTOBELLO PARK,670 AQUAVIEW DR Cumberland,19,,1oth line/Blackburn Bypass,NONE,,YES,TEMP,NO,PERM,RINK with Puddle,NO,Community,"670, prom AQUAVIEW",None,,Oui,Temp,Non,Oui,patinoire avec flaque,Non,PARC PORTOBELLO,Y,45.45754310790,-75.46984526680
155,140,HAROLD DICEMAN PARK,30 DICEMAN CRES Gloucester,2,,Ridgeburn Gate/Diceman,NONE,,NO,NONE,NONE,NONE,Puddle,NO,Community,"30, crois DICEMAN",None,,Non,Non,Non,Non,flaque,Non,PARC HAROLD-DICEMAN,Y,45.43797199790,-75.56181613520
1732,125,UPCOUNTRY PARK,310 UPCOUNTRY DR Goulbourn,6,,Hartsmere/Upcountry,NONE,,NO,NONE,NO,NONE,Puddle,NO,Community,"310, prom UPCOUNTRY",None,,Non,Non,Non,Non,flaque,Non,PARC UPCOUNTRY,Y,45.24583207670,-75.91012735630
589,126,VERNON RECREATION CENTRE,7950 LAWRENCE ST Osgoode,20,,Bank/Lawrence,COMMUNITY CENTER,,YES,TEMP,NO,NONE,Rink,NO,Community,"7950, rue LAWRENCE",Centre communautaire,,Oui,Temp,Non,Non,patinoire,Non,CENTRE R?CR?ATIF DE VERNON,Y,45.16275715410,-75.45332747330
1712,95,COYOTE RUN PARK,367 WEST RIDGE DRIVE Goulbourn,6,,West Ridge/Coyote,NONE,NO,NO,NONE,NO,NO,Puddle,NO,Community,"367, prom WEST RIDGE",None,Non,Non,Non,Non,Non,flaque,Non,PARC COYOTE RUN,Y,45.24634770400,-75.91974261710
2388,74,RIVER RUN PARK,3490 RIVER RUN AVE Nepean,3,Half Moon Bay,,NONE,NO,YES,TEMP,NO,PERM,Rink,NO,Community,"3490, av RIVER RUN",None,Non,Oui,Temp,Non,Oui,patinoire,Non,PARC RIVER RUN,Y,45.25263779470,-75.74409108180
80,25,MORGAN'S GRANT,1365 HALTON TER Kanata,4,Klondike,March/Terry Fox,NONE,NO,YES,PERM,NO,TEMP,Rink,NO,Community,"1365, terr HALTON",None,Non,Oui,Perm,Non,Oui,patinoire,Non,PARC KLONDIKE ROAD,Y,45.34909918210,-75.93801281400
134,89,BREWER PARK (OVAL),100 BREWER WAY Old Ottawa,17,,Sunnyside/Seneca,SHACK + TRAILER + ARENA,,YES,TEMP,YES,TEMP,RINK with Puddle + OVAL,YES,Community,"100, voie BREWER",Cabane,,Oui,Temp,Oui,Oui,patinoire avec flaque et OVAL,Oui,PARC BREWER,Y,45.38830390560,-75.68971051630
1741,276,PIONEER PLAINS PARK,1018 STITTSVILLE MAIN ST Goulbourn,6,,,,,,,,,,,,PARC PIONEER PLAINS,,,,,,,,,PARC PIONEER PLAINS,Y,45.27710959920,-75.93355728910
2130,275,FOSTERBROOK PARK,428 FOSTERBROOK WAY Nepean,3,,,,,,,,,,,,"428, voie FOSTERBROOK",,,,,,,,,PARC FOSTERBROOK,Y,45.26800701800,-75.77710569260
2255,63,KILBIRNIE PARK,665 KILBIRNIE DR Nepean,3,,,NONE,NO,YES,TEMP,NO,PERM,Rink with Puddle,NO,Community,"665, prom KILBIRNIE",None,Non,Oui,Temp,Non,Oui,patinoire avec flaque,Non,PARC KILBIRNIE,Y,45.24746288960,-75.72419132720
2120,130,AQUAVIEW,318 AQUAVIEW DR Cumberland,19,"Formerly known as ""Portabello 2""",,,,,,,,Puddle,NO,Community,"318, prom AQUAVIEW",,,,,,,flaque,Non,SENTIER DE LIAISON,Y,45.45341162520,-75.47726418190
0,136,BRADLEY RIDGE,221 RADHIKA CRT Gloucester,2,,Renaud / Joshua,,,,,,,Puddle,NO,,"221, cour RADHIKA",,,,,,,flaque,Non,BRADLEY RIDGE,Y,45.42722154570,-75.52611807350
1960,160,PROVENCE,2095 PROVENCE AVE Cumberland,19,,,NONE,NO,NO,NONE,NO,NO,Puddle,NO,Community,"2095, av PROVENCE",None,Non,Non,Non,Non,Non,flaque,Non,PARC PROVENCE,Y,45.46060464500,-75.45686676180
1029,229,PAGET,801 SPRINGLAND DR Old Ottawa,16,"replaces ""Bayview""",E Map,NONE,NO,NO,NONE,NO,NO,Puddle,NO,Community,"801, prom SPRINGLAND",None,Non,Non,Non,Non,Non,flaque,Non,PARC PAGET,Y,45.36992955130,-75.68526216370
466,230,PAULINE VANIER PARK,1015 HARKNESS AVE Old Ottawa,16,,Harkeness/Avoncourt,BRICK FIELDHOUSE,YES,YES,TEMP,YES,BOTH,RINK with Puddle,YES,Community,"1015, av HARKNESS",Pavillon,Oui,Oui,Temp,Oui,Oui,patinoire avec flaque,Oui,PARC PAULINE-VANIER,Y,45.36721453500,-75.67655096010
328,174,BALENA PARK,1640 DEVON ST Old Ottawa,18,,Industrial/Russell,FIELDHOUSE,YES,NO,NONE,YES,TEMP,Double Surface,YES,Community,"1640, rue DEVON",Pavillon,Oui,Non,Non,Oui,Oui,surface double,Oui,PARC BALENA,Y,45.40565835750,-75.64407423440
1021,240,SHEFFIELD GLEN PARK,2320 SOUTHVALE CRES Old Ottawa,18,,Russell/Southvale,FIELDHOUSE,YES,YES,TEMP,YES,BOTH,RINK with Puddle,YES,Community,"2320, crois SOUTHVALE",Pavillon,Oui,Oui,Temp,Oui,Oui,patinoire avec flaque,Oui,PARC SHEFFIELD GLEN,Y,45.39829910250,-75.61348225390
832,243,WESTON PARK,955 PLEASANT PARK RD Old Ottawa,18,,Pleasant Park/Valley,FIELDHOUSE,YES,YES,TEMP,YES,BOTH,RINK with Puddle,YES,Community,"955, ch PLEASANT PARK",Pavillon,Oui,Oui,Temp,Oui,Oui,patinoire avec flaque,Oui,PARC WESTON,Y,45.39576806800,-75.62455899020
831,232,PLAYFAIR PARK,1801 PLAYFAIR DR Old Ottawa,18,,Playfair/Beaumont,BRICK FIELDHOUSE,YES,YES,TEMP,NO,TEMP,RINK with Puddle,YES,Community,"1801, prom PLAYFAIR",Pavillon,Oui,Oui,Temp,Non,Oui,patinoire avec flaque,Oui,PARC PLAYFAIR,Y,45.39122057520,-75.64488566390
363,234,RIDEAUVIEW PARK,960 EIFFEL AVE Old Ottawa,16,,Eiffel/Bellamy,BRICK FIELDHOUSE,YES,YES,TEMP,YES,TEMP,RINK with Puddle,YES,Community,"960, av EIFFEL",Pavillon,Oui,Oui,Temp,Oui,Oui,patinoire avec flaque,Oui,PARC RIDEAUVIEW,Y,45.36743568600,-75.70664925930
479,222,HERON PARK,999 HERON RD Old Ottawa,17,,Heron/Clover,BRICK FIELDHOUSE,YES,YES,TEMP,YES,TEMP,RINK with Puddle,YES,Community,"999, ch HERON",Pavillon,Oui,Oui,Temp,Oui,Oui,patinoire avec flaque,Oui,PARC HERON,Y,45.37879794970,-75.67722104240
1090,220,HAWTHORNE PARK,2139 TAWNEY RD Old Ottawa,18,,Tawney/Joliffe,FIELDHOUSE,YES,NO,NONE,YES,TEMP,Double Surface,YES,Community,"2139, ch TAWNEY",Pavillon,Oui,Non,Non,Oui,Oui,surface double,Oui,PARC HAWTHORNE,Y,45.39390000260,-75.61550000040
76,112,LAROCHE PARK,52 BAYVIEW RD Old Ottawa,15,,Scott/Hinchey,FIELDHOUSE,,YES,TEMP,YES,PERM,RINK with Puddle,YES,Community,"52, ch BAYVIEW",Pavillon,,Oui,Temp,Oui,Oui,patinoire avec flaque,Oui,PARC LAROCHE,Y,45.40839305050,-75.72852728340
840,122,PLOUFFE PARK,130 PRESTON ST Old Ottawa,14,,Somerset/Preston,COMMUNITY CENTER,,YES,TEMP,YES,PERM,RINK with Puddle,YES,Community,"130, rue PRESTON",Centre communautaire,,Oui,Temp,Oui,Oui,patinoire avec flaque,Oui,PARC PLOUFFE,Y,45.40725703880,-75.71409672290
759,198,PALMERSTON PARK,1326 OGILVIE RD Gloucester,11,,Ogilvie/Palmerston,FIELDHOUSE,YES,YES,TEMP,NO,PERM,Double Surface (End Boards),YES,Community,"1326, ch OGILVIE",Pavillon,Oui,Oui,Temp,Non,Oui,surface double (conseils de fin),Oui,PARC PALMERSTON,Y,45.42920000200,-75.62254999980
213,179,CEDARCROFT PARK,1200 CEDARCROFT CRES Gloucester,11,,Blar Meadowbrook,(NONE) NO TRAILER,NO,YES,PERM,NO,PERM,Rink,NO,City,"1200, crois CEDARCROFT",Aucon,Non,Oui,Perm,Non,Oui,patinoire,Non,PARC CEDARCROFT,Y,45.42450753640,-75.61308285780
613,226,LEXINGTON PARK,1404 LEXINGTON ST Old Ottawa,16,,Lexington/Hudson,NONE,NO,NO,NONE,NO,PERM,Puddle,NO,Community,"1404, rue LEXINGTON",None,Non,Non,Non,Non,Oui,flaque,Non,PARC LEXINGTON,Y,45.36903696490,-75.71156451880
1186,129,WINDSOR PARK OTTAWA,1 WINDSOR AVE Old Ottawa,17,,Riverdale/Windsor,FIELDHOUSE,,YES,TEMP,YES,TEMP,RINK with Puddle,YES,Community,"1, av WINDSOR",Pavillon,,Oui,Temp,Oui,Oui,patinoire avec flaque,Oui,PARC WINDSOR (OTTAWA),Y,45.39398333550,-75.67626666610
170,93,CHAMPLAIN PARK,140 CARLETON AVE Old Ottawa,15,,Island Park/Clearview,COMMUNITY BUILDING,,YES,TEMP,YES,TEMP,RINK with Puddle,YES,Community,"140, av CARLETON",Installation communautaire,,Oui,Temp,Oui,Oui,patinoire avec flaque,Oui,PARC CHAMPLAIN,Y,45.40489357460,-75.74552363810
873,197,OVERBROOK PARK,33 QUILL ST Old Ottawa,13,,Queen Mary/Quill,COMMUNITY CENTER,YES,YES,TEMP,YES,TEMP,RINK with Puddle,YES,Community,"33, rue QUILL",Centre communautaire,Oui,Oui,Temp,Oui,Oui,patinoire avec flaque,Oui,PARC OVERBROOK,Y,45.42525094640,-75.65605477850
132,192,MANOR PARK,100 BRAEMAR ST Old Ottawa,13,,Hemlock/Thornwood,COMMUNITY BUILDING,YES,YES,TEMP,YES,TEMP,RINK with Puddle,YES,Community,"100, rue BRAEMAR",Installation communautaire,Oui,Oui,Temp,Oui,Oui,patinoire avec flaque,Oui,PARC MANOR,Y,45.45134104140,-75.65700697880
374,97,CYPRESS GARDENS PARK,33 ELM CRES Goulbourn,6,,Elm/Stittsville,FIELDHOUSE,,YES,TEMP,NO,PERM,RINK with Puddle,NO,Community,"33, crois ELM",Pavillon,,Oui,Temp,Non,Oui,patinoire avec flaque,Non,PARC CYPRESS GARDENS,Y,45.24990000230,-75.91846666710
812,115,MCNABB PARK,435 BRONSON AVE Old Ottawa,14,,Bronson/Gladston,COMMUNITY CENTER,,YES,TEMP,YES,TEMP,RINK with Puddle,YES,Community,"435, av BRONSON",Centre communautaire,,Oui,Temp,Oui,Oui,patinoire avec flaque,Oui,PARC MCNABB,Y,45.40867507960,-75.70284104250
16,217,EMERALD WOODS PARK,3795 ALDERWOOD ST Gloucester,10,,Alderwood/Autumnwood,NONE,NO,NO,NONE,NO,NONE,Puddle,NO,City,"3795, rue ALDERWOOD",None,Non,Non,Non,Non,Non,flaque,Non,PARC EMERALD WOODS,Y,45.34513414630,-75.64023423680
10,208,ALADDIN PARK,3939 ALBION RD Gloucester,10,,Albion/Aladin,NONE,NO,YES,TEMP,NO,PERM,RINK,NO,City,"3939, ch ALBION",None,Non,Oui,Temp,Non,Oui,patinoire,Non,PARC ALADDIN,Y,45.34110129080,-75.63516356290
964,241,SIEVERIGHT PARK,2999 SABLE RIDGE DR Gloucester,10,,Sable Ridge/Courtyard,NONE,NO,YES,TEMP,NO,PERM,RINK,NO,City,"2999, prom SABLE RIDGE",None,Non,Oui,Temp,Non,Oui,patinoire,Non,PARC SIEVERIGHT,Y,45.35632167850,-75.63528426230
122,213,CALZAVARA FAMILY PARK,1602 BLOHM DR Old Ottawa,10,,Johnson/Blohm,TRAILER,YES,YES,TEMP,NO,TEMP,RINK with Puddle,YES,Community,"1602, prom BLOHM",Trailer,Oui,Oui,Temp,Non,Oui,patinoire avec flaque,Oui,PARC CALZAVARA FAMILY,Y,45.37445905510,-75.60821959190
23,184,DALE PARK,1590 ALTA VISTA DR Old Ottawa,18,,Alta Vista/Industrial,SHACK,NO,NO,NONE,NO,NONE,Puddle,NO,Community,"1590, prom ALTA VISTA",Cabane,Non,Non,Non,Non,Non,flaque,Non,PARC DALE,Y,45.40964253180,-75.65974644740
839,200,PRESLAND PARK,368 PRESLAND RD Old Ottawa,13,,Presland/Naughton,(NONE) NO TRAILER,NO,YES,TEMP,NO,TEMP,Rink,NO,Community,"368, ch PRESLAND",Aucon,Non,Oui,Temp,Non,Oui,patinoire,Non,PARC PRESLAND,Y,45.42291585030,-75.64920013880
245,189,JULES MORIN PARK / ANGLESEA PARK,400 CLARENCE ST Old Ottawa,12,,Cobourg/Old St. Patrick,FIELDHOUSE,YES,YES,TEMP,YES,PERM,RINK with Puddle,YES,Community,"400, rue CLARENCE",Pavillon,Oui,Oui,Temp,Oui,Oui,patinoire avec flaque,Oui,PARC JULES-MORIN  / PARC ANGLESEA,Y,45.43325778350,-75.68228345510
484,224,KEMP PARK,11 ROBERT KEMP,10,,Kemp Dr./Robert Kemp St.,NONE,NO,YES,TEMP,NO,NONE,Puddle,NO,City,"11, rue ROBERT KEMP",None,Non,Oui,Temp,Non,Non,flaque,Non,PARC KEMP,Y,45.33643810180,-75.60646505130
942,191,LINDENLEA PARK,15 ROCKCLIFFE WAY Old Ottawa,13,,Acacia/Maple,TRAILER,YES,NO,NONE,NO,PERM,Puddle,NO,Community,"15, voie ROCKCLIFFE",Trailer,Oui,Non,Non,Non,Oui,flaque,Non,PARC LINDENLEA,Y,45.44496152660,-75.67637294400
674,207,WHITEROCK PARK,1245 MATHESON RD Gloucester,11,,Matheson/White Rock,NONE,NO,NO,NONE,NO,NONE,Puddle,NO,Community,"1245, ch MATHESON",None,Non,Non,Non,Non,Non,flaque,Non,PARC WHITEROCK,Y,45.43251221520,-75.62757798070
1330,146,ISAIE SAVAGE PARK,114 SAPHIR AVE Cumberland,19,,Navan/Mer Belue,NONE,,YES,TEMP,NO,TEMP,Double Surface (End Boards),NO,Community,"114, av SAPHIR",None,,Oui,Temp,Non,Oui,surface double (conseils de fin),Non,PARC ISAIE-SAVAGE,Y,45.42592781210,-75.48577884330
225,94,CHANONHOUSE PARK,28 CHANONHOUSE DR Goulbourn,21,,Eagleson/Ottawa,FIELDHOUSE,,YES,TEMP,NO,PERM,RINK with Puddle,NO,Community,"28, prom CHANONHOUSE",Pavillon,,Oui,Temp,Non,Oui,patinoire avec flaque,Non,PARC CHANONHOUSE,Y,45.19333999530,-75.82350612270
1331,107,GREELY WEST PARK,6485 GREELY WEST DR Osgoode,20,,Apple Orchard/Greely West,NONE,,YES,TEMP,NO,PERM,Rink,NO,Community,"6485, prom GREELY WEST",None,,Oui,Temp,Non,Oui,patinoire,Non,PARC GREELY WEST,Y,45.24959906820,-75.59912953370
1213,111,KENMORE BALL PARK,3151 YORKS CORNERS RD Osgoode,20,,Tolmies Corners/Red Town,COMMUNITY BUILDING,,YES,PERM,NO,PERM,RINK with Puddle,NO,Community,"3151, ch YORKS CORNERS",Installation communautaire,,Oui,Perm,Non,Oui,patinoire avec flaque,Non,TERRAIN DE BALLE KENMORE,Y,45.23293333560,-75.41641666690
112,3,BILLY BISHOP PARK,1 BISHOPS MILLS DR Kanata,4,Ed Hollyer,Campeau/March,NONE,NO,NO,NONE,NO,NONE,Puddle,NO,Community,"1, prom BISHOPS MILLS",None,Non,Non,Non,Non,Non,flaque,Non,PARC BILLY-BISHOP,Y,45.32004344610,-75.89240368660
990,244,WINDSOR PARK GLOUCESTER,3560 WYMAN PL Gloucester,10,,Wyman Pl./Wyman Cres.,BRICK FIELDHOUSE,YES,NO,NONE,NO,PERM,Puddle,YES,Community,"3560, place WYMAN",Pavillon,Oui,Non,Non,Non,Oui,flaque,Oui,PARC WINDSOR  (GLOUCESTER),Y,45.34565294440,-75.65943558190
47,211,BADEN PARK,3900 AUTUMNWOOD ST Gloucester,10,,Baden/Autumnwood,NONE,NO,NO,NONE,NO,NONE,Puddle,NO,City,"3900, rue AUTUMNWOOD",None,Non,Non,Non,Non,Non,flaque,Non,PARC BADEN,Y,45.34038520910,-75.64031916720
1111,242,TRAPPERS PARK,3580 TRAPPER'S RD Gloucester,10,,Trappers/Farriers,NONE,NO,YES,TEMP,NO,NONE,Double Surface (End Boards),NO,City,"3580, ch TRAPPER'S",None,Non,Oui,Temp,Non,Non,surface double (conseils de fin),Non,PARC TRAPPERS,Y,45.34672851980,-75.64476004720
877,123,RALPH STREET PARK,12 RALPHPARK ST Goulbourn,6,,Orville/Ralphpark st.,FIELDHOUSE,,YES,TEMP,NO,PERM,Rink,NO,Community,"12, rue RALPHPARK",Pavillon,,Oui,Temp,Non,Oui,patinoire,Non,PARC RALPH STREET,Y,45.25795406390,-75.91651104770
691,104,GEORGE MCLEAN PARK,5348 MCLEAN CRES Rideau,21,,,NONE,,YES,PERM,NO,PERM,RINK with Puddle,NO,Community,"5348, crois MCLEAN",None,,Oui,Perm,Non,Oui,patinoire avec flaque,Non,PARC GEORGE-MCLEAN,Y,45.23441666930,-75.69603333300
711,24,MICHELE PARK,2955 MICHELE DR Old Ottawa,7,,Carling/Grenon,COMMUNITY CENTER,YES,YES,TEMP,YES,TEMP,RINK with Puddle,YES,Community,"2955, prom MICHELE",Centre communautaire,Oui,Oui,Temp,Oui,Oui,patinoire avec flaque,Oui,PARC MICHELE,Y,45.35502636400,-75.80146498800
1001,103,FOUR SEASONS PARK,4386 SPRATT RD Gloucester,22,,Earl Armstrong/Shoreline,COMMUNITY CENTER,,NO,NONE,YES,YES,Double Surface,NO,Community,"4386, ch SPRATT",Centre communautaire,,Non,Non,Oui,Oui,surface double,Non,PARC FOUR SEASONS,Y,45.27551465220,-75.69006527990
201,41,WHALEN PARK,4111 KANATA AVE Kanata,4,,Goulbourn Forced/Kanata,SHACK,NO,YES,TEMP,NO,TEMP,RINK with Puddle,NO,Community,"4111, av KANATA",Cabane,Non,Oui,Temp,Non,Oui,patinoire avec flaque,Non,PARC WHALEN,Y,45.32191169470,-75.92317697460
1069,37,STONEMEADOW PARK,56 STONEMEADOW DR Kanata,23,,Stonehaven/Stonemeadow,NONE,NO,NO,NONE,NO,NONE,Puddle,NO,Community,"56, prom STONEMEADOW",None,Non,Non,Non,Non,Non,flaque,Non,PARC STONEMEADOW,Y,45.28834989580,-75.84550313150
20,90,BRYANSTON GATE PARK,23 ALON ST Goulbourn,6,,Hazeldean/Johnswood,FIELDHOUSE,,YES,TEMP,NO,YES,RINK with Puddle,NO,Community,"23, rue ALON",Pavillon,,Oui,Temp,Non,Oui,patinoire avec flaque,Non,PARC BRYANSTON GATE,Y,45.27792112800,-75.92747368280
384,218,FAIRLEA PARK,2989 FAIRLEA CRES Old Ottawa,10,,Heatherington/Fairlea,FIELDHOUSE,YES,YES,TEMP,NO,BOTH,RINK with Puddle,NO,Community,"2989, crois FAIRLEA",Pavillon,Oui,Oui,Temp,Non,Oui,patinoire avec flaque,Non,PARC FAIRLEA,Y,45.37636279820,-75.64019798750
543,223,KALADAR PARK,2554 KALADAR AVE Old Ottawa,17,,Brookfield/Kaladar,BRICK FIELDHOUSE,YES,YES,TEMP,NO,BOTH,Double Surface (Low Boards),YES,Community,"2554, av KALADAR",Pavillon,Oui,Oui,Temp,Non,Oui,surface double (conseils faible),Oui,PARC KALADAR,Y,45.37279305260,-75.67129465570
496,73,NEILL NESBITT PARK (FOXFIELD),70 FOXFIELD DR Nepean,3,,Fallowfield/Greenbank,NONE,NO,NO,NONE,NO,NONE,Puddle,NO,City,"70, prom FOXFIELD",None,Non,Non,Non,Non,Non,flaque,Non,PARC NEILL-NESBITT  (FOXFIELD),Y,45.28716869030,-75.74942652060
101,80,TREND-ARLINGTON PARK,50 BELLMAN DR Nepean,9,,West Hunt Club/Greenbank,COMMUNITY BUILDING,YES,YES,TEMP,YES,PERM,RINK with Puddle,YES,Community,"50, prom BELLMAN",Installation communautaire,Oui,Oui,Temp,Oui,Oui,patinoire avec flaque,Oui,PARC TREND-ARLINGTON,Y,45.32730543720,-75.78268497030
795,51,BRIARGREEN PARK,9 PARKFIELD CRES Nepean,8,,Greenbank/Meadowbank,NONE,YES,YES,TEMP,NO,PERM,RINK with Puddle,YES,Community,"9, crois PARKFIELD",None,Oui,Oui,Temp,Non,Oui,patinoire avec flaque,Oui,PARC BRIARGREEN,Y,45.33808390990,-75.77884328600
